{"type": "FeatureCollection", "features": [ {"type": "Feature", "properties": {"norad_id": 41335, "name": "SENTINEL-3A", "group": "resource", "lat": -62.99949373347291, "lon": 64.01576161851689, "alt_km": 810.4319259803497, "timestamp": "2025-12-07T14:37:04.866702+00:00", "meta": {"OBJECT_NAME": "SENTINEL-3A", "OBJECT_ID": "2016-011A", "EPOCH": "2025-12-06T22:05:16.594080", "MEAN_MOTION": 14.26743197, "ECCENTRICITY": 9.728e-05, "INCLINATION": 98.6214, "RA_OF_ASC_NODE": 46.0148, "ARG_OF_PERICENTER": 92.4623, "MEAN_ANOMALY": 267.6669, "EPHEMERIS_TYPE": 0, "CLASSIFICATION_TYPE": "U", "NORAD_CAT_ID": 41335, "ELEMENT_SET_NO": 999, "REV_AT_EPOCH": 51064, "BSTAR": 0.0001381318, "MEAN_MOTION_DOT": 2.91e-06, "MEAN_MOTION_DDOT": 0}, "tle": {"line1": "1 41335U 16011A   25340.92033095  .00000291  00000+0  13813-3 0  9990", "line2": "2 41335  98.6214  46.0148 0000972  92.4623 267.6669 14.26743197510647"}}, "geometry": {"type": "Point", "coordinates": [64.01576161851689, -62.99949373347291]}}, {"type": "Feature", "properties": {"norad_id": 41556, "name": "ZIYUAN 3-2 (ZY 3-2)", "group": "resource", "lat": 76.62899900596372, "lon": -90.9671969502117, "alt_km": 502.7478862343942, "timestamp": "2025-12-07T14:37:04.866713+00:00", "meta": {"OBJECT_NAME": "ZIYUAN 3-2 (ZY 3-2)", "OBJECT_ID": "2016-033A", "EPOCH": "2025-12-06T22:23:20.906304", "MEAN_MOTION": 15.21377479, "ECCENTRICITY": 0.00123446, "INCLINATION": 97.4051, "RA_OF_ASC_NODE": 55.1955, "ARG_OF_PERICENTER": 271.8368, "MEAN_ANOMALY": 88.1454, "EPHEMERIS_TYPE": 0, "CLASSIFICATION_TYPE": "U", "NORAD_CAT_ID": 41556, "ELEMENT_SET_NO": 999, "REV_AT_EPOCH": 52875, "BSTAR": 0.00048320874, "MEAN_MOTION_DOT": 0.00010793, "MEAN_MOTION_DDOT": 0}, "tle": {"line1": "1 41556U 16033A   25340.93288086  .00010793  00000+0  48321-3 0  9992", "line2": "2 41556  97.4051  55.1955 0012344 271.8368  88.1454 15.21377479528751"}}, "geometry": {"type": "Point", "coordinates": [-90.9671969502117, 76.62899900596372]}}, {"type": "Feature", "properties": {"norad_id": 41599, "name": "CARTOSAT-2C", "group": "resource", "lat": 81.23646405438312, "lon": -19.5146920504011, "alt_km": 493.2409183182381, "timestamp": "2025-12-07T14:37:04.866723+00:00", "meta": {"OBJECT_NAME": "CARTOSAT-2C", "OBJECT_ID": "2016-040A", "EPOCH": "2025-12-06T20:51:19.876320", "MEAN_MOTION": 15.19207912, "ECCENTRICITY": 0.00109797, "INCLINATION": 97.4771, "RA_OF_ASC_NODE": 38.1798, "ARG_OF_PERICENTER": 82.9418, "MEAN_ANOMALY": 277.3064, "EPHEMERIS_TYPE": 0, "CLASSIFICATION_TYPE": "U", "NORAD_CAT_ID": 41599, "ELEMENT_SET_NO": 999, "REV_AT_EPOCH": 52451, "BSTAR": 0.00035994503, "MEAN_MOTION_DOT": 7.522e-05, "MEAN_MOTION_DDOT": 0}, "tle": {"line1": "1 41599U 16040A   25340.86898005  .00007522  00000+0  35995-3 0  9996", "line2": "2 41599  97.4771  38.1798 0010979  82.9418 277.3064 15.19207912524512"}}, "geometry": {"type": "Point", "coordinates": [-19.5146920504011, 81.23646405438312]}}, {"type": "Feature", "properties": {"norad_id": 41601, "name": "SKYSAT-C1", "group": "resource", "lat": -74.60849672676288, "lon": 172.47498898811642, "alt_km": 477.2232951664446, "timestamp": "2025-12-07T14:37:04.866734+00:00", "meta": {"OBJECT_NAME": "SKYSAT-C1", "OBJECT_ID": "2016-040C", "EPOCH": "2025-12-06T21:49:54.034752", "MEAN_MOTION": 15.32433886, "ECCENTRICITY": 0.00029719, "INCLINATION": 96.9827, "RA_OF_ASC_NODE": 18.2528, "ARG_OF_PERICENTER": 31.45, "MEAN_ANOMALY": 328.692, "EPHEMERIS_TYPE": 0, "CLASSIFICATION_TYPE": "U", "NORAD_CAT_ID": 41601, "ELEMENT_SET_NO": 999, "REV_AT_EPOCH": 52838, "BSTAR": 0.00046014038, "MEAN_MOTION_DOT": 0.00014351, "MEAN_MOTION_DDOT": 0}, "tle": {"line1": "1 41601U 16040C   25340.90965318  .00014351  00000+0  46014-3 0  9999", "line2": "2 41601  96.9827  18.2528 0002971  31.4500 328.6920 15.32433886528382"}}, "geometry": {"type": "Point", "coordinates": [172.47498898811642, -74.60849672676288]}}, {"type": "Feature", "properties": {"norad_id": 41603, "name": "LAPAN-A3", "group": "resource", "lat": 57.658323496871915, "lon": -32.0700311250691, "alt_km": 462.8779485650657, "timestamp": "2025-12-07T14:37:04.866744+00:00", "meta": {"OBJECT_NAME": "LAPAN-A3", "OBJECT_ID": "2016-040E", "EPOCH": "2025-12-06T22:40:59.608704", "MEAN_MOTION": 15.31482063, "ECCENTRICITY": 0.00103738, "INCLINATION": 97.1423, "RA_OF_ASC_NODE": 338.7123, "ARG_OF_PERICENTER": 355.6302, "MEAN_ANOMALY": 4.4848, "EPHEMERIS_TYPE": 0, "CLASSIFICATION_TYPE": "U", "NORAD_CAT_ID": 41603, "ELEMENT_SET_NO": 999, "REV_AT_EPOCH": 52537, "BSTAR": 0.00020526535, "MEAN_MOTION_DOT": 6.176e-05, "MEAN_MOTION_DDOT": 0}, "tle": {"line1": "1 41603U 16040E   25340.94513436  .00006176  00000+0  20527-3 0  9992", "line2": "2 41603  97.1423 338.7123 0010373 355.6302   4.4848 15.31482063525370"}}, "geometry": {"type": "Point", "coordinates": [-32.0700311250691, 57.658323496871915]}}, {"type": "Feature", "properties": {"norad_id": 41604, "name": "BIROS", "group": "resource", "lat": -82.81334300102039, "lon": 113.08847577169752, "alt_km": 317.0558614497713, "timestamp": "2025-12-07T14:37:04.866754+00:00", "meta": {"OBJECT_NAME": "BIROS", "OBJECT_ID": "2016-040F", "EPOCH": "2025-12-06T19:20:04.382592", "MEAN_MOTION": 15.87267806, "ECCENTRICITY": 0.00030582, "INCLINATION": 97.0681, "RA_OF_ASC_NODE": 12.0117, "ARG_OF_PERICENTER": 161.6931, "MEAN_ANOMALY": 198.4452, "EPHEMERIS_TYPE": 0, "CLASSIFICATION_TYPE": "U", "NORAD_CAT_ID": 41604, "ELEMENT_SET_NO": 999, "REV_AT_EPOCH": 52778, "BSTAR": 0.00078769178, "MEAN_MOTION_DOT": 0.00209332, "MEAN_MOTION_DDOT": 0}, "tle": {"line1": "1 41604U 16040F   25340.80560628  .00209332  00000+0  78769-3 0  9993", "line2": "2 41604  97.0681  12.0117 0003058 161.6931 198.4452 15.87267806527785"}}, "geometry": {"type": "Point", "coordinates": [113.08847577169752, -82.81334300102039]}}, {"type": "Feature", "properties": {"norad_id": 41727, "name": "GAOFEN-3", "group": "resource", "lat": 41.579823201630134, "lon": -20.263004272446338, "alt_km": 746.8598652388719, "timestamp": "2025-12-07T14:37:04.866765+00:00", "meta": {"OBJECT_NAME": "GAOFEN-3", "OBJECT_ID": "2016-049A", "EPOCH": "2025-12-06T23:26:15.556416", "MEAN_MOTION": 14.42211605, "ECCENTRICITY": 0.00015169, "INCLINATION": 98.404, "RA_OF_ASC_NODE": 346.6508, "ARG_OF_PERICENTER": 70.1523, "MEAN_ANOMALY": 289.9831, "EPHEMERIS_TYPE": 0, "CLASSIFICATION_TYPE": "U", "NORAD_CAT_ID": 41727, "ELEMENT_SET_NO": 999, "REV_AT_EPOCH": 49094, "BSTAR": 6.3474885e-05, "MEAN_MOTION_DOT": 1.66e-06, "MEAN_MOTION_DDOT": 0}, "tle": {"line1": "1 41727U 16049A   25340.97656894  .00000166  00000+0  63475-4 0  9990", "line2": "2 41727  98.4040 346.6508 0001516  70.1523 289.9831 14.42211605490943"}}, "geometry": {"type": "Point", "coordinates": [-20.263004272446338, 41.579823201630134]}}, {"type": "Feature", "properties": {"norad_id": 41771, "name": "SKYSAT-C4", "group": "resource", "lat": 13.864613762152615, "lon": 5.324794464369217, "alt_km": 441.52367378819235, "timestamp": "2025-12-07T14:37:04.866775+00:00", "meta": {"OBJECT_NAME": "SKYSAT-C4", "OBJECT_ID": "2016-058B", "EPOCH": "2025-12-06T19:52:06.678048", "MEAN_MOTION": 15.42002885, "ECCENTRICITY": 9.846e-05, "INCLINATION": 96.9374, "RA_OF_ASC_NODE": 6.3039, "ARG_OF_PERICENTER": 131.396, "MEAN_ANOMALY": 228.7373, "EPHEMERIS_TYPE": 0, "CLASSIFICATION_TYPE": "U", "NORAD_CAT_ID": 41771, "ELEMENT_SET_NO": 999, "REV_AT_EPOCH": 51576, "BSTAR": 0.00056503522, "MEAN_MOTION_DOT": 0.0002405, "MEAN_MOTION_DDOT": 0}, "tle": {"line1": "1 41771U 16058B   25340.82785507  .00024050  00000+0  56504-3 0  9999", "line2": "2 41771  96.9374   6.3039 0000984 131.3960 228.7373 15.42002885515766"}}, "geometry": {"type": "Point", "coordinates": [5.324794464369217, 13.864613762152615]}}, {"type": "Feature", "properties": {"norad_id": 41772, "name": "SKYSAT-C5", "group": "resource", "lat": 54.89844982773454, "lon": 15.385464359691946, "alt_km": 453.30978131736265, "timestamp": "2025-12-07T14:37:04.866786+00:00", "meta": {"OBJECT_NAME": "SKYSAT-C5", "OBJECT_ID": "2016-058C", "EPOCH": "2025-12-06T21:10:22.149984", "MEAN_MOTION": 15.35498705, "ECCENTRICITY": 0.00027404, "INCLINATION": 97.0762, "RA_OF_ASC_NODE": 24.8672, "ARG_OF_PERICENTER": 119.1882, "MEAN_ANOMALY": 240.9637, "EPHEMERIS_TYPE": 0, "CLASSIFICATION_TYPE": "U", "NORAD_CAT_ID": 41772, "ELEMENT_SET_NO": 999, "REV_AT_EPOCH": 51426, "BSTAR": 0.00046008144, "MEAN_MOTION_DOT": 0.00015811, "MEAN_MOTION_DDOT": 0}, "tle": {"line1": "1 41772U 16058C   25340.88220081  .00015811  00000+0  46008-3 0  9990", "line2": "2 41772  97.0762  24.8672 0002740 119.1882 240.9637 15.35498705514262"}}, "geometry": {"type": "Point", "coordinates": [15.385464359691946, 54.89844982773454]}}, {"type": "Feature", "properties": {"norad_id": 41773, "name": "SKYSAT-C2", "group": "resource", "lat": 29.80112233772021, "lon": 2.297585753094357, "alt_km": 450.14263378216674, "timestamp": "2025-12-07T14:37:04.866796+00:00", "meta": {"OBJECT_NAME": "SKYSAT-C2", "OBJECT_ID": "2016-058D", "EPOCH": "2025-12-06T19:44:19.794912", "MEAN_MOTION": 15.37074556, "ECCENTRICITY": 0.00048009, "INCLINATION": 97.036, "RA_OF_ASC_NODE": 5.6008, "ARG_OF_PERICENTER": 49.6267, "MEAN_ANOMALY": 310.5397, "EPHEMERIS_TYPE": 0, "CLASSIFICATION_TYPE": "U", "NORAD_CAT_ID": 41773, "ELEMENT_SET_NO": 999, "REV_AT_EPOCH": 51545, "BSTAR": 0.00051962252, "MEAN_MOTION_DOT": 0.00018805, "MEAN_MOTION_DDOT": 0}, "tle": {"line1": "1 41773U 16058D   25340.82245133  .00018805  00000+0  51962-3 0  9991", "line2": "2 41773  97.0360   5.6008 0004800  49.6267 310.5397 15.37074556515455"}}, "geometry": {"type": "Point", "coordinates": [2.297585753094357, 29.80112233772021]}}]}